{"type": "FeatureCollection", "features": [ {"type": "Feature", "properties": {"norad_id": 30466, "name": "FENGYUN 1C DEB", "group": "fengyun-1c-debris", "lat": -77.96123173346447, "lon": 63.355648605058185, "alt_km": 880.7609970734657, "timestamp": "2025-12-03T13:52:09.838260+00:00", "meta": {"OBJECT_NAME": "FENGYUN 1C DEB", "OBJECT_ID": "1999-025AGD", "EPOCH": "2025-12-03T02:42:17.423424", "MEAN_MOTION": 14.22444289, "ECCENTRICITY": 0.01171269, "INCLINATION": 98.6567, "RA_OF_ASC_NODE": 17.3086, "ARG_OF_PERICENTER": 52.2165, "MEAN_ANOMALY": 6.3914, "EPHEMERIS_TYPE": 0, "CLASSIFICATION_TYPE": "U", "NORAD_CAT_ID": 30466, "ELEMENT_SET_NO": 999, "REV_AT_EPOCH": 97214, "BSTAR": 0.0016199551, "MEAN_MOTION_DOT": 3.831e-05, "MEAN_MOTION_DDOT": 0}, "tle": {"line1": "1 30466U 99025AGD 25337.11270166  .00003831  00000+0  16200-2 0  9993", "line2": "2 30466  98.6567  17.3086 0117126  52.2165   6.3914 14.22444289972142"}}, "geometry": {"type": "Point", "coordinates": [63.355648605058185, -77.96123173346447]}}, {"type": "Feature", "properties": {"norad_id": 30467, "name": "FENGYUN 1C DEB", "group": "fengyun-1c-debris", "lat": -63.23177915903629, "lon": 167.69808473187462, "alt_km": 842.5197775423385, "timestamp": "2025-12-03T13:52:09.838271+00:00", "meta": {"OBJECT_NAME": "FENGYUN 1C DEB", "OBJECT_ID": "1999-025AGE", "EPOCH": "2025-12-03T01:07:11.488800", "MEAN_MOTION": 14.17220304, "ECCENTRICITY": 0.00652909, "INCLINATION": 98.6802, "RA_OF_ASC_NODE": 4.8077, "ARG_OF_PERICENTER": 154.9517, "MEAN_ANOMALY": 260.0121, "EPHEMERIS_TYPE": 0, "CLASSIFICATION_TYPE": "U", "NORAD_CAT_ID": 30467, "ELEMENT_SET_NO": 999, "REV_AT_EPOCH": 97040, "BSTAR": 0.0011346065, "MEAN_MOTION_DOT": 2.296e-05, "MEAN_MOTION_DDOT": 0}, "tle": {"line1": "1 30467U 99025AGE 25337.04666075  .00002296  00000+0  11346-2 0  9994", "line2": "2 30467  98.6802   4.8077 0065290 154.9517 260.0121 14.17220304970401"}}, "geometry": {"type": "Point", "coordinates": [167.69808473187462, -63.23177915903629]}}, {"type": "Feature", "properties": {"norad_id": 30468, "name": "FENGYUN 1C DEB", "group": "fengyun-1c-debris", "lat": 77.50790285978188, "lon": 13.823672641283439, "alt_km": 765.3122370924784, "timestamp": "2025-12-03T13:52:09.838281+00:00", "meta": {"OBJECT_NAME": "FENGYUN 1C DEB", "OBJECT_ID": "1999-025AGF", "EPOCH": "2025-12-03T05:09:46.030176", "MEAN_MOTION": 14.20610654, "ECCENTRICITY": 0.00726632, "INCLINATION": 98.9232, "RA_OF_ASC_NODE": 58.6229, "ARG_OF_PERICENTER": 67.6322, "MEAN_ANOMALY": 319.1334, "EPHEMERIS_TYPE": 0, "CLASSIFICATION_TYPE": "U", "NORAD_CAT_ID": 30468, "ELEMENT_SET_NO": 999, "REV_AT_EPOCH": 96675, "BSTAR": 0.0020163238, "MEAN_MOTION_DOT": 4.413e-05, "MEAN_MOTION_DDOT": 0}, "tle": {"line1": "1 30468U 99025AGF 25337.21511609  .00004413  00000+0  20163-2 0  9996", "line2": "2 30468  98.9232  58.6229 0072663  67.6322 319.1334 14.20610654966754"}}, "geometry": {"type": "Point", "coordinates": [13.823672641283439, 77.50790285978188]}}, {"type": "Feature", "properties": {"norad_id": 30469, "name": "FENGYUN 1C DEB", "group": "fengyun-1c-debris", "lat": 35.38479025998853, "lon": 15.075471168221394, "alt_km": 830.3765030384484, "timestamp": "2025-12-03T13:52:09.838292+00:00", "meta": {"OBJECT_NAME": "FENGYUN 1C DEB", "OBJECT_ID": "1999-025AGG", "EPOCH": "2025-12-02T13:14:28.450752", "MEAN_MOTION": 13.96474058, "ECCENTRICITY": 0.0158495, "INCLINATION": 98.4787, "RA_OF_ASC_NODE": 188.0477, "ARG_OF_PERICENTER": 198.3076, "MEAN_ANOMALY": 191.1442, "EPHEMERIS_TYPE": 0, "CLASSIFICATION_TYPE": "U", "NORAD_CAT_ID": 30469, "ELEMENT_SET_NO": 999, "REV_AT_EPOCH": 95564, "BSTAR": 0.00093894851, "MEAN_MOTION_DOT": 1.403e-05, "MEAN_MOTION_DDOT": 0}, "tle": {"line1": "1 30469U 99025AGG 25336.55171818  .00001403  00000+0  93895-3 0  9996", "line2": "2 30469  98.4787 188.0477 0158495 198.3076 191.1442 13.96474058955646"}}, "geometry": {"type": "Point", "coordinates": [15.075471168221394, 35.38479025998853]}}, {"type": "Feature", "properties": {"norad_id": 30471, "name": "FENGYUN 1C DEB", "group": "fengyun-1c-debris", "lat": 35.89368439861123, "lon": 58.43769554615707, "alt_km": 871.3331523405159, "timestamp": "2025-12-03T13:52:09.838302+00:00", "meta": {"OBJECT_NAME": "FENGYUN 1C DEB", "OBJECT_ID": "1999-025AGJ", "EPOCH": "2025-12-03T05:19:59.825280", "MEAN_MOTION": 14.13522544, "ECCENTRICITY": 0.0081562, "INCLINATION": 99.0547, "RA_OF_ASC_NODE": 64.7048, "ARG_OF_PERICENTER": 280.3344, "MEAN_ANOMALY": 106.4423, "EPHEMERIS_TYPE": 0, "CLASSIFICATION_TYPE": "U", "NORAD_CAT_ID": 30471, "ELEMENT_SET_NO": 999, "REV_AT_EPOCH": 96308, "BSTAR": 0.0022967728, "MEAN_MOTION_DOT": 4.42e-05, "MEAN_MOTION_DDOT": 0}, "tle": {"line1": "1 30471U 99025AGJ 25337.22222020  .00004420  00000+0  22968-2 0  9990", "line2": "2 30471  99.0547  64.7048 0081562 280.3344 106.4423 14.13522544963083"}}, "geometry": {"type": "Point", "coordinates": [58.43769554615707, 35.89368439861123]}}, {"type": "Feature", "properties": {"norad_id": 30472, "name": "FENGYUN 1C DEB", "group": "fengyun-1c-debris", "lat": -79.12629684723049, "lon": -154.05386232185194, "alt_km": 746.7026270612523, "timestamp": "2025-12-03T13:52:09.838313+00:00", "meta": {"OBJECT_NAME": "FENGYUN 1C DEB", "OBJECT_ID": "1999-025AGK", "EPOCH": "2025-12-03T06:11:01.881888", "MEAN_MOTION": 14.53461632, "ECCENTRICITY": 0.0038757, "INCLINATION": 98.6528, "RA_OF_ASC_NODE": 78.057, "ARG_OF_PERICENTER": 108.6195, "MEAN_ANOMALY": 279.9531, "EPHEMERIS_TYPE": 0, "CLASSIFICATION_TYPE": "U", "NORAD_CAT_ID": 30472, "ELEMENT_SET_NO": 999, "REV_AT_EPOCH": 97903, "BSTAR": 0.0034112532, "MEAN_MOTION_DOT": 0.00014335, "MEAN_MOTION_DDOT": 0}, "tle": {"line1": "1 30472U 99025AGK 25337.25766067  .00014335  00000+0  34113-2 0  9999", "line2": "2 30472  98.6528  78.0570 0038757 108.6195 279.9531 14.53461632979032"}}, "geometry": {"type": "Point", "coordinates": [-154.05386232185194, -79.12629684723049]}}, {"type": "Feature", "properties": {"norad_id": 30474, "name": "FENGYUN 1C DEB", "group": "fengyun-1c-debris", "lat": -54.40213096001915, "lon": 68.79776202942429, "alt_km": 773.1682053500754, "timestamp": "2025-12-03T13:52:09.838323+00:00", "meta": {"OBJECT_NAME": "FENGYUN 1C DEB", "OBJECT_ID": "1999-025AGM", "EPOCH": "2025-12-02T18:38:44.877120", "MEAN_MOTION": 14.37546714, "ECCENTRICITY": 0.00231885, "INCLINATION": 98.9299, "RA_OF_ASC_NODE": 55.2786, "ARG_OF_PERICENTER": 35.8352, "MEAN_ANOMALY": 86.2218, "EPHEMERIS_TYPE": 0, "CLASSIFICATION_TYPE": "U", "NORAD_CAT_ID": 30474, "ELEMENT_SET_NO": 999, "REV_AT_EPOCH": 97250, "BSTAR": 0.0027843343, "MEAN_MOTION_DOT": 8.333e-05, "MEAN_MOTION_DDOT": 0}, "tle": {"line1": "1 30474U 99025AGM 25336.77690830  .00008333  00000+0  27843-2 0  9994", "line2": "2 30474  98.9299  55.2786 0023188  35.8352  86.2218 14.37546714972509"}}, "geometry": {"type": "Point", "coordinates": [68.79776202942429, -54.40213096001915]}}, {"type": "Feature", "properties": {"norad_id": 30475, "name": "FENGYUN 1C DEB", "group": "fengyun-1c-debris", "lat": 14.225188165090158, "lon": 16.983146390528784, "alt_km": 824.3716479738468, "timestamp": "2025-12-03T13:52:09.838334+00:00", "meta": {"OBJECT_NAME": "FENGYUN 1C DEB", "OBJECT_ID": "1999-025AGN", "EPOCH": "2025-12-03T02:11:15.347904", "MEAN_MOTION": 14.15632369, "ECCENTRICITY": 0.00420892, "INCLINATION": 98.7885, "RA_OF_ASC_NODE": 18.7509, "ARG_OF_PERICENTER": 318.9607, "MEAN_ANOMALY": 95.9613, "EPHEMERIS_TYPE": 0, "CLASSIFICATION_TYPE": "U", "NORAD_CAT_ID": 30475, "ELEMENT_SET_NO": 999, "REV_AT_EPOCH": 96815, "BSTAR": 0.00093335332, "MEAN_MOTION_DOT": 1.8e-05, "MEAN_MOTION_DDOT": 0}, "tle": {"line1": "1 30475U 99025AGN 25337.09114986  .00001800  00000+0  93335-3 0  9996", "line2": "2 30475  98.7885  18.7509 0042089 318.9607  95.9613 14.15632369968155"}}, "geometry": {"type": "Point", "coordinates": [16.983146390528784, 14.225188165090158]}}, {"type": "Feature", "properties": {"norad_id": 30476, "name": "FENGYUN 1C DEB", "group": "fengyun-1c-debris", "lat": -39.579225264523004, "lon": 22.113310750394806, "alt_km": 796.9587267973848, "timestamp": "2025-12-03T13:52:09.838344+00:00", "meta": {"OBJECT_NAME": "FENGYUN 1C DEB", "OBJECT_ID": "1999-025AGP", "EPOCH": "2025-12-03T02:30:37.244736", "MEAN_MOTION": 14.20817217, "ECCENTRICITY": 0.00447724, "INCLINATION": 99.1258, "RA_OF_ASC_NODE": 13.989, "ARG_OF_PERICENTER": 327.5872, "MEAN_ANOMALY": 92.8493, "EPHEMERIS_TYPE": 0, "CLASSIFICATION_TYPE": "U", "NORAD_CAT_ID": 30476, "ELEMENT_SET_NO": 999, "REV_AT_EPOCH": 96708, "BSTAR": 0.0018045551, "MEAN_MOTION_DOT": 3.892e-05, "MEAN_MOTION_DDOT": 0}, "tle": {"line1": "1 30476U 99025AGP 25337.10459774  .00003892  00000+0  18046-2 0  9994", "line2": "2 30476  99.1258  13.9890 0044772 327.5872  92.8493 14.20817217967082"}}, "geometry": {"type": "Point", "coordinates": [22.113310750394806, -39.579225264523004]}}, {"type": "Feature", "properties": {"norad_id": 30477, "name": "FENGYUN 1C DEB", "group": "fengyun-1c-debris", "lat": -73.08533865059697, "lon": 94.56799862664262, "alt_km": 862.058030871226, "timestamp": "2025-12-03T13:52:09.838355+00:00", "meta": {"OBJECT_NAME": "FENGYUN 1C DEB", "OBJECT_ID": "1999-025AGQ", "EPOCH": "2025-12-02T22:09:26.879328", "MEAN_MOTION": 13.23763569, "ECCENTRICITY": 0.04313168, "INCLINATION": 99.4255, "RA_OF_ASC_NODE": 60.8671, "ARG_OF_PERICENTER": 300.6063, "MEAN_ANOMALY": 106.4978, "EPHEMERIS_TYPE": 0, "CLASSIFICATION_TYPE": "U", "NORAD_CAT_ID": 30477, "ELEMENT_SET_NO": 999, "REV_AT_EPOCH": 90589, "BSTAR": 0.0031975147, "MEAN_MOTION_DOT": 2.191e-05, "MEAN_MOTION_DDOT": 0}, "tle": {"line1": "1 30477U 99025AGQ 25336.92322777  .00002191  00000+0  31975-2 0  9993", "line2": "2 30477  99.4255  60.8671 0431316 300.6063 106.4978 13.23763569905892"}}, "geometry": {"type": "Point", "coordinates": [94.56799862664262, -73.08533865059697]}}]}